start=new Date('2022-09-05T00:00:00.000Z').valueOf();
sats=[{"ECCENTRICITY":"0.00014010","EPOCH":"2022-09-04T18:49:44.379552","INCLINATION":"53.0549","SITE":"AFETR","PERIOD":"95.591","LAUNCH_DATE":"2021-02-16","ARG_OF_PERICENTER":"81.3306","MEAN_ANOMALY":"278.7842","TIME_SYSTEM":"UTC","RA_OF_ASC_NODE":"66.3246","SEMIMAJOR_AXIS":"6925.309","REF_FRAME":"TEME","MEAN_ELEMENT_THEORY":"SGP4","PERIAPSIS":"546.204","CLASSIFICATION_TYPE":"U","RCS_SIZE":"LARGE","EPHEMERIS_TYPE":"0","BSTAR":"0.00012499000000","MEAN_MOTION_DDOT":"0.0000000000000","TLE_LINE2":"2 47667  53.0549  66.3246 0001401  81.3306 278.7842 15.06412770 86759","REV_AT_EPOCH":"8675","MEAN_MOTION_DOT":"0.00001581","ELEMENT_SET_NO":"999","MEAN_MOTION":"15.06412770","DECAY_DATE":null,"NORAD_CAT_ID":"47667","OBJECT_TYPE":"PAYLOAD","TLE_LINE1":"1 47667U 21012AZ  22247.78454143  .00001581  00000-0  12499-3 0  9992","OBJECT_NAME":"STARLINK-2058","CENTER_NAME":"EARTH","FILE":"3558394","GP_ID":"211751356","OBJECT_ID":"2021-012AZ","COUNTRY_CODE":"US","APOAPSIS":"548.145"},{"EPHEMERIS_TYPE":"0","TLE_LINE2":"2 47668  53.0556  46.1186 0001368  89.5010 270.6135 15.06394664 87063","REV_AT_EPOCH":"8706","MEAN_MOTION_DDOT":"0.0000000000000","BSTAR":"0.00009383400000","ELEMENT_SET_NO":"999","MEAN_MOTION_DOT":"0.00001116","MEAN_MOTION":"15.06394664","REF_FRAME":"TEME","SEMIMAJOR_AXIS":"6925.365","PERIAPSIS":"546.283","CLASSIFICATION_TYPE":"U","MEAN_ELEMENT_THEORY":"SGP4","RCS_SIZE":"LARGE","GP_ID":"211750116","FILE":"3558394","OBJECT_ID":"2021-012BA","APOAPSIS":"548.177","COUNTRY_CODE":"US","DECAY_DATE":null,"NORAD_CAT_ID":"47668","CENTER_NAME":"EARTH","TLE_LINE1":"1 47668U 21012BA  22247.82694715  .00001116  00000-0  93834-4 0  9996","OBJECT_TYPE":"PAYLOAD","OBJECT_NAME":"STARLINK-2059","SITE":"AFETR","PERIOD":"95.592","LAUNCH_DATE":"2021-02-16","INCLINATION":"53.0556","ECCENTRICITY":"0.00013680","EPOCH":"2022-09-04T19:50:48.233760","TIME_SYSTEM":"UTC","MEAN_ANOMALY":"270.6135","RA_OF_ASC_NODE":"46.1186","ARG_OF_PERICENTER":"89.5010"},{"COUNTRY_CODE":"US","APOAPSIS":"535.893","OBJECT_ID":"2021-012BB","FILE":"3558394","GP_ID":"211750364","TLE_LINE1":"1 47669U 21012BB  22247.72062712  .00016481  00000-0  10005-2 0  9990","OBJECT_NAME":"STARLINK-2060","OBJECT_TYPE":"PAYLOAD","CENTER_NAME":"EARTH","NORAD_CAT_ID":"47669","DECAY_DATE":null,"ELEMENT_SET_NO":"999","MEAN_MOTION":"15.10643863","MEAN_MOTION_DOT":"0.00016481","BSTAR":"0.00100050000000","MEAN_MOTION_DDOT":"0.0000000000000","TLE_LINE2":"2 47669  53.0551 329.1058 0002396  75.4445 284.6811 15.10643863 88104","REV_AT_EPOCH":"8810","EPHEMERIS_TYPE":"0","RCS_SIZE":"LARGE","MEAN_ELEMENT_THEORY":"SGP4","CLASSIFICATION_TYPE":"U","PERIAPSIS":"532.581","SEMIMAJOR_AXIS":"6912.372","REF_FRAME":"TEME","RA_OF_ASC_NODE":"329.1058","TIME_SYSTEM":"UTC","MEAN_ANOMALY":"284.6811","ARG_OF_PERICENTER":"75.4445","LAUNCH_DATE":"2021-02-16","PERIOD":"95.324","SITE":"AFETR","EPOCH":"2022-09-04T17:17:42.183168","ECCENTRICITY":"0.00023960","INCLINATION":"53.0551"},{"EPHEMERIS_TYPE":"0","TLE_LINE2":"2 47670  53.0564  46.6517 0001602  82.2763 277.8408 15.06409637 87030","REV_AT_EPOCH":"8703","BSTAR":"0.00020566000000","MEAN_MOTION_DDOT":"0.0000000000000","MEAN_MOTION":"15.06409637","ELEMENT_SET_NO":"999","MEAN_MOTION_DOT":"0.00002784","REF_FRAME":"TEME","SEMIMAJOR_AXIS":"6925.319","CLASSIFICATION_TYPE":"U","PERIAPSIS":"546.075","MEAN_ELEMENT_THEORY":"SGP4","RCS_SIZE":"LARGE","GP_ID":"211751602","FILE":"3558394","OBJECT_ID":"2021-012BC","APOAPSIS":"548.293","COUNTRY_CODE":"US","DECAY_DATE":null,"NORAD_CAT_ID":"47670","TLE_LINE1":"1 47670U 21012BC  22247.70898768  .00002784  00000-0  20566-3 0  9993","OBJECT_TYPE":"PAYLOAD","OBJECT_NAME":"STARLINK-2062","CENTER_NAME":"EARTH","SITE":"AFETR","PERIOD":"95.592","LAUNCH_DATE":"2021-02-16","INCLINATION":"53.0564","ECCENTRICITY":"0.00016020","EPOCH":"2022-09-04T17:00:56.535552","TIME_SYSTEM":"UTC","MEAN_ANOMALY":"277.8408","RA_OF_ASC_NODE":"46.6517","ARG_OF_PERICENTER":"82.2763"},{"LAUNCH_DATE":"2021-02-16","PERIOD":"95.591","SITE":"AFETR","INCLINATION":"53.0549","ECCENTRICITY":"0.00014330","EPOCH":"2022-09-04T18:09:56.630880","RA_OF_ASC_NODE":"46.4261","MEAN_ANOMALY":"266.3061","TIME_SYSTEM":"UTC","ARG_OF_PERICENTER":"93.8092","MEAN_MOTION_DOT":"0.00001477","MEAN_MOTION":"15.06417727","ELEMENT_SET_NO":"999","REV_AT_EPOCH":"8705","TLE_LINE2":"2 47671  53.0549  46.4261 0001433  93.8092 266.3061 15.06417727 87052","BSTAR":"0.00011795000000","MEAN_MOTION_DDOT":"0.0000000000000","EPHEMERIS_TYPE":"0","RCS_SIZE":"LARGE","PERIAPSIS":"546.167","CLASSIFICATION_TYPE":"U","MEAN_ELEMENT_THEORY":"SGP4","REF_FRAME":"TEME","SEMIMAJOR_AXIS":"6925.294","APOAPSIS":"548.152","COUNTRY_CODE":"US","OBJECT_ID":"2021-012BD","GP_ID":"211751857","FILE":"3558394","TLE_LINE1":"1 47671U 21012BD  22247.75690545  .00001477  00000-0  11795-3 0  9994","OBJECT_TYPE":"PAYLOAD","OBJECT_NAME":"STARLINK-2064","CENTER_NAME":"EARTH","NORAD_CAT_ID":"47671","DECAY_DATE":null},{"ARG_OF_PERICENTER":"90.6274","RA_OF_ASC_NODE":"36.5448","TIME_SYSTEM":"UTC","MEAN_ANOMALY":"269.4872","INCLINATION":"53.0547","ECCENTRICITY":"0.00013700","EPOCH":"2022-09-04T17:39:25.689600","LAUNCH_DATE":"2021-02-16","SITE":"AFETR","PERIOD":"95.592","TLE_LINE1":"1 47672U 21012BE  22247.73571400  .00002493  00000-0  18616-3 0  9999","OBJECT_NAME":"STARLINK-2065","OBJECT_TYPE":"PAYLOAD","CENTER_NAME":"EARTH","DECAY_DATE":null,"NORAD_CAT_ID":"47672","OBJECT_ID":"2021-012BE","APOAPSIS":"548.147","COUNTRY_CODE":"US","GP_ID":"211750617","FILE":"3558394","RCS_SIZE":"LARGE","REF_FRAME":"TEME","SEMIMAJOR_AXIS":"6925.333","PERIAPSIS":"546.250","CLASSIFICATION_TYPE":"U","MEAN_ELEMENT_THEORY":"SGP4","MEAN_MOTION":"15.06404920","MEAN_MOTION_DOT":"0.00002493","ELEMENT_SET_NO":"999","EPHEMERIS_TYPE":"0","TLE_LINE2":"2 47672  53.0547  36.5448 0001370  90.6274 269.4872 15.06404920 87162","REV_AT_EPOCH":"8716","MEAN_MOTION_DDOT":"0.0000000000000","BSTAR":"0.00018616000000"},{"INCLINATION":"53.0551","ECCENTRICITY":"0.00015340","EPOCH":"2022-09-04T17:06:15.126048","SITE":"AFETR","PERIOD":"95.592","LAUNCH_DATE":"2021-02-16","ARG_OF_PERICENTER":"84.4448","TIME_SYSTEM":"UTC","MEAN_ANOMALY":"275.6716","RA_OF_ASC_NODE":"46.6505","REF_FRAME":"TEME","SEMIMAJOR_AXIS":"6925.329","CLASSIFICATION_TYPE":"U","PERIAPSIS":"546.132","MEAN_ELEMENT_THEORY":"SGP4","RCS_SIZE":"LARGE","EPHEMERIS_TYPE":"0","TLE_LINE2":"2 47673  53.0551  46.6505 0001534  84.4448 275.6716 15.06406349 87039","REV_AT_EPOCH":"8703","MEAN_MOTION_DDOT":"0.0000000000000","BSTAR":"0.00006259600000","ELEMENT_SET_NO":"999","MEAN_MOTION":"15.06406349","MEAN_MOTION_DOT":"0.00000651","DECAY_DATE":null,"NORAD_CAT_ID":"47673","TLE_LINE1":"1 47673U 21012BF  22247.71267507  .00000651  00000-0  62596-4 0  9999","OBJECT_TYPE":"PAYLOAD","CENTER_NAME":"EARTH","OBJECT_NAME":"STARLINK-2066","GP_ID":"211750865","FILE":"3558394","OBJECT_ID":"2021-012BF","APOAPSIS":"548.256","COUNTRY_CODE":"US"},{"ARG_OF_PERICENTER":"87.4502","MEAN_ANOMALY":"272.6666","TIME_SYSTEM":"UTC","RA_OF_ASC_NODE":"46.2658","INCLINATION":"53.0568","ECCENTRICITY":"0.00015630","EPOCH":"2022-09-04T19:01:39.383616","SITE":"AFETR","PERIOD":"95.591","LAUNCH_DATE":"2021-02-16","DECAY_DATE":null,"NORAD_CAT_ID":"47674","OBJECT_TYPE":"PAYLOAD","TLE_LINE1":"1 47674U 21012BG  22247.79281694  .00003535  00000-0  25601-3 0  9990","CENTER_NAME":"EARTH","OBJECT_NAME":"STARLINK-2067","GP_ID":"211751102","FILE":"3558394","OBJECT_ID":"2021-012BG","APOAPSIS":"548.256","COUNTRY_CODE":"US","REF_FRAME":"TEME","SEMIMAJOR_AXIS":"6925.308","CLASSIFICATION_TYPE":"U","PERIAPSIS":"546.091","MEAN_ELEMENT_THEORY":"SGP4","RCS_SIZE":"LARGE","EPHEMERIS_TYPE":"0","REV_AT_EPOCH":"8705","TLE_LINE2":"2 47674  53.0568  46.2658 0001563  87.4502 272.6666 15.06413150 87050","MEAN_MOTION_DDOT":"0.0000000000000","BSTAR":"0.00025601000000","ELEMENT_SET_NO":"999","MEAN_MOTION":"15.06413150","MEAN_MOTION_DOT":"0.00003535"},{"TIME_SYSTEM":"UTC","MEAN_ANOMALY":"265.9388","RA_OF_ASC_NODE":"46.6024","ARG_OF_PERICENTER":"94.1753","PERIOD":"95.592","SITE":"AFETR","LAUNCH_DATE":"2021-02-16","EPOCH":"2022-09-04T17:16:51.730752","ECCENTRICITY":"0.00013300","INCLINATION":"53.0552","FILE":"3558394","GP_ID":"211751357","COUNTRY_CODE":"US","APOAPSIS":"548.121","OBJECT_ID":"2021-012BH","NORAD_CAT_ID":"47675","DECAY_DATE":null,"TLE_LINE1":"1 47675U 21012BH  22247.72004318  .00001866  00000-0  14413-3 0  9994","CENTER_NAME":"EARTH","OBJECT_TYPE":"PAYLOAD","OBJECT_NAME":"STARLINK-2078","MEAN_MOTION_DDOT":"0.0000000000000","BSTAR":"0.00014413000000","TLE_LINE2":"2 47675  53.0552  46.6024 0001330  94.1753 265.9388 15.06404577 87048","REV_AT_EPOCH":"8704","EPHEMERIS_TYPE":"0","MEAN_MOTION":"15.06404577","MEAN_MOTION_DOT":"0.00001866","ELEMENT_SET_NO":"999","MEAN_ELEMENT_THEORY":"SGP4","CLASSIFICATION_TYPE":"U","PERIAPSIS":"546.278","SEMIMAJOR_AXIS":"6925.335","REF_FRAME":"TEME","RCS_SIZE":"LARGE"},{"INCLINATION":"53.0530","ECCENTRICITY":"0.00014310","EPOCH":"2022-09-04T12:23:36.637728","PERIOD":"95.591","SITE":"AFETR","LAUNCH_DATE":"2021-02-16","ARG_OF_PERICENTER":"73.7172","TIME_SYSTEM":"UTC","MEAN_ANOMALY":"286.3974","RA_OF_ASC_NODE":"297.5169","CLASSIFICATION_TYPE":"U","PERIAPSIS":"546.188","MEAN_ELEMENT_THEORY":"SGP4","REF_FRAME":"TEME","SEMIMAJOR_AXIS":"6925.314","RCS_SIZE":"LARGE","REV_AT_EPOCH":"8803","TLE_LINE2":"2 47676  53.0530 297.5169 0001431  73.7172 286.3974 15.06411366 88034","MEAN_MOTION_DDOT":"0.0000000000000","BSTAR":"0.00020896000000","EPHEMERIS_TYPE":"0","ELEMENT_SET_NO":"999","MEAN_MOTION":"15.06411366","MEAN_MOTION_DOT":"0.00002833","NORAD_CAT_ID":"47676","DECAY_DATE":null,"TLE_LINE1":"1 47676U 21012BJ  22247.51639627  .00002833  00000-0  20896-3 0  9996","OBJECT_NAME":"STARLINK-2083","OBJECT_TYPE":"PAYLOAD","CENTER_NAME":"EARTH","GP_ID":"211723326","FILE":"3558107","APOAPSIS":"548.170","COUNTRY_CODE":"US","OBJECT_ID":"2021-012BJ"}];
